IRIDIUM 166             
1 43570U 18061B   25274.24451632  .00000535  00000+0  18412-3 0  9993
2 43570  86.4032 164.9784 0002176  77.3902 282.7537 14.34219324376280
IRIDIUM 158             
1 43571U 18061C   25274.42211088  .00000192  00000+0  61460-4 0  9994
2 43571  86.4032 164.9141 0002279  86.9457 273.1999 14.34218474376273
IRIDIUM 165             
1 43572U 18061D   25274.23817307  .00000559  00000+0  19265-3 0  9992
2 43572  86.4034 165.0324 0002096  80.2966 279.8466 14.34216678376276
IRIDIUM 155             
1 43573U 18061E   25274.40942602  .00000181  00000+0  57479-4 0  9990
2 43573  86.4027 164.8431 0002313  82.0346 278.1112 14.34218830376260
IRIDIUM 154             
1 43574U 18061F   25274.46016264  .00000362  00000+0  12203-3 0  9999
2 43574  86.4031 164.9423 0002204  82.0279 278.1167 14.34218178376324
IRIDIUM 163             
1 43575U 18061G   25274.23183358  .00000156  00000+0  48535-4 0  9993
2 43575  86.4031 164.9612 0002182  88.7508 271.3938 14.34218650376267
IRIDIUM 156             
1 43576U 18061H   25274.41575988  .00000282  00000+0  93506-4 0  9996
2 43576  86.4031 164.8915 0002387  78.0271 282.1192 14.34216398376280
IRIDIUM 164             
1 43577U 18061J   25274.39674078 -.00000036  00000+0 -20068-4 0  9996
2 43577  86.4034 164.9354 0001988  77.9468 282.1950 14.34218094376326
